CCSDS_OMM_VERS = 2.0
CREATION_DATE  = 
ORIGINATOR     = 

OBJECT_NAME    = SL-3 R/B
OBJECT_ID      = 1982-079B
CENTER_NAME    = EARTH
REF_FRAME      = TEME
TIME_SYSTEM    = UTC
MEAN_ELEMENT_THEORY = SGP/SGP4

EPOCH          = 2026-03-26T12:44:11.608224
MEAN_MOTION    = 15.25021798
ECCENTRICITY   = .0025557
INCLINATION    = 81.1481
RA_OF_ASC_NODE = 173.1930
ARG_OF_PERICENTER = 109.3361
MEAN_ANOMALY   = 251.0639

EPHEMERIS_TYPE = 0
CLASSIFICATION_TYPE = U
NORAD_CAT_ID   = 13403
ELEMENT_SET_NO = 999
REV_AT_EPOCH   = 38026
BSTAR          = .22315E-3
MEAN_MOTION_DOT = .5649E-4
MEAN_MOTION_DDOT = 0

CCSDS_OMM_VERS = 2.0
CREATION_DATE  = 
ORIGINATOR     = 

OBJECT_NAME    = SL-14 R/B
OBJECT_ID      = 1982-092B
CENTER_NAME    = EARTH
REF_FRAME      = TEME
TIME_SYSTEM    = UTC
MEAN_ELEMENT_THEORY = SGP/SGP4

EPOCH          = 2026-03-26T13:20:33.974592
MEAN_MOTION    = 14.86681056
ECCENTRICITY   = .0018927
INCLINATION    = 82.5662
RA_OF_ASC_NODE = 125.6218
ARG_OF_PERICENTER = 243.1860
MEAN_ANOMALY   = 277.5297

EPHEMERIS_TYPE = 0
CLASSIFICATION_TYPE = U
NORAD_CAT_ID   = 13553
ELEMENT_SET_NO = 999
REV_AT_EPOCH   = 33143
BSTAR          = .42607E-4
MEAN_MOTION_DOT = .404E-5
MEAN_MOTION_DDOT = 0

CCSDS_OMM_VERS = 2.0
CREATION_DATE  = 
ORIGINATOR     = 

OBJECT_NAME    = SL-3 R/B
OBJECT_ID      = 1983-010B
CENTER_NAME    = EARTH
REF_FRAME      = TEME
TIME_SYSTEM    = UTC
MEAN_ELEMENT_THEORY = SGP/SGP4

EPOCH          = 2026-03-26T10:51:50.749344
MEAN_MOTION    = 15.46914021
ECCENTRICITY   = .0016251
INCLINATION    = 81.1052
RA_OF_ASC_NODE = 341.6892
ARG_OF_PERICENTER = 354.4772
MEAN_ANOMALY   = 5.6290

EPHEMERIS_TYPE = 0
CLASSIFICATION_TYPE = U
NORAD_CAT_ID   = 13819
ELEMENT_SET_NO = 999
REV_AT_EPOCH   = 36053
BSTAR          = .29158E-3
MEAN_MOTION_DOT = .14787E-3
MEAN_MOTION_DDOT = 0

CCSDS_OMM_VERS = 2.0
CREATION_DATE  = 
ORIGINATOR     = 

OBJECT_NAME    = SL-3 R/B
OBJECT_ID      = 1983-075B
CENTER_NAME    = EARTH
REF_FRAME      = TEME
TIME_SYSTEM    = UTC
MEAN_ELEMENT_THEORY = SGP/SGP4

EPOCH          = 2026-03-26T11:11:29.630688
MEAN_MOTION    = 15.38802372
ECCENTRICITY   = .0021983
INCLINATION    = 97.6146
RA_OF_ASC_NODE = 90.6841
ARG_OF_PERICENTER = 164.6073
MEAN_ANOMALY   = 195.5845

EPHEMERIS_TYPE = 0
CLASSIFICATION_TYPE = U
NORAD_CAT_ID   = 14208
ELEMENT_SET_NO = 999
REV_AT_EPOCH   = 33273
BSTAR          = .26371E-3
MEAN_MOTION_DOT = .10114E-3
MEAN_MOTION_DDOT = 0

CCSDS_OMM_VERS = 2.0
CREATION_DATE  = 
ORIGINATOR     = 

OBJECT_NAME    = COSMOS 1536
OBJECT_ID      = 1984-013A
CENTER_NAME    = EARTH
REF_FRAME      = TEME
TIME_SYSTEM    = UTC
MEAN_ELEMENT_THEORY = SGP/SGP4

EPOCH          = 2026-03-26T11:07:38.241120
MEAN_MOTION    = 15.24044911
ECCENTRICITY   = .0013103
INCLINATION    = 82.5420
RA_OF_ASC_NODE = 91.1692
ARG_OF_PERICENTER = 217.1448
MEAN_ANOMALY   = 142.8884

EPHEMERIS_TYPE = 0
CLASSIFICATION_TYPE = U
NORAD_CAT_ID   = 14699
ELEMENT_SET_NO = 999
REV_AT_EPOCH   = 27517
BSTAR          = .24093E-3
MEAN_MOTION_DOT = .5887E-4
MEAN_MOTION_DDOT = 0

CCSDS_OMM_VERS = 2.0
CREATION_DATE  = 
ORIGINATOR     = 

OBJECT_NAME    = SL-14 R/B
OBJECT_ID      = 1984-027B
CENTER_NAME    = EARTH
REF_FRAME      = TEME
TIME_SYSTEM    = UTC
MEAN_ELEMENT_THEORY = SGP/SGP4

EPOCH          = 2026-03-26T12:39:27.567360
MEAN_MOTION    = 14.85993298
ECCENTRICITY   = .0016485
INCLINATION    = 82.5411
RA_OF_ASC_NODE = 229.2189
ARG_OF_PERICENTER = 278.4203
MEAN_ANOMALY   = 81.5145

EPHEMERIS_TYPE = 0
CLASSIFICATION_TYPE = U
NORAD_CAT_ID   = 14820
ELEMENT_SET_NO = 999
REV_AT_EPOCH   = 25013
BSTAR          = .56438E-4
MEAN_MOTION_DOT = .518E-5
MEAN_MOTION_DDOT = 0

CCSDS_OMM_VERS = 2.0
CREATION_DATE  = 
ORIGINATOR     = 

OBJECT_NAME    = SL-8 R/B
OBJECT_ID      = 1985-006B
CENTER_NAME    = EARTH
REF_FRAME      = TEME
TIME_SYSTEM    = UTC
MEAN_ELEMENT_THEORY = SGP/SGP4

EPOCH          = 2026-03-26T10:13:21.603936
MEAN_MOTION    = 14.37795069
ECCENTRICITY   = .0017778
INCLINATION    = 74.0446
RA_OF_ASC_NODE = 230.3495
ARG_OF_PERICENTER = 143.4077
MEAN_ANOMALY   = 274.4762

EPHEMERIS_TYPE = 0
CLASSIFICATION_TYPE = U
NORAD_CAT_ID   = 15483
ELEMENT_SET_NO = 999
REV_AT_EPOCH   = 15643
BSTAR          = .11459E-3
MEAN_MOTION_DOT = .32E-5
MEAN_MOTION_DDOT = 0

CCSDS_OMM_VERS = 2.0
CREATION_DATE  = 
ORIGINATOR     = 

OBJECT_NAME    = SL-12 R/B(2)
OBJECT_ID      = 1985-042D
CENTER_NAME    = EARTH
REF_FRAME      = TEME
TIME_SYSTEM    = UTC
MEAN_ELEMENT_THEORY = SGP/SGP4

EPOCH          = 2026-03-26T09:01:24.387744
MEAN_MOTION    = 14.21986990
ECCENTRICITY   = .0032849
INCLINATION    = 71.1081
RA_OF_ASC_NODE = 52.4723
ARG_OF_PERICENTER = 100.4881
MEAN_ANOMALY   = 11.2275

EPHEMERIS_TYPE = 0
CLASSIFICATION_TYPE = U
NORAD_CAT_ID   = 15772
ELEMENT_SET_NO = 999
REV_AT_EPOCH   = 11676
BSTAR          = .73228E-4
MEAN_MOTION_DOT = .115E-5
MEAN_MOTION_DDOT = 0

CCSDS_OMM_VERS = 2.0
CREATION_DATE  = 
ORIGINATOR     = 

OBJECT_NAME    = SL-14 R/B
OBJECT_ID      = 1985-069B
CENTER_NAME    = EARTH
REF_FRAME      = TEME
TIME_SYSTEM    = UTC
MEAN_ELEMENT_THEORY = SGP/SGP4

EPOCH          = 2026-03-26T12:10:10.314048
MEAN_MOTION    = 14.86450842
ECCENTRICITY   = .0019896
INCLINATION    = 82.5304
RA_OF_ASC_NODE = 9.1234
ARG_OF_PERICENTER = 133.3114
MEAN_ANOMALY   = 226.9766

EPHEMERIS_TYPE = 0
CLASSIFICATION_TYPE = U
NORAD_CAT_ID   = 15945
ELEMENT_SET_NO = 999
REV_AT_EPOCH   = 17533
BSTAR          = .52308E-4
MEAN_MOTION_DOT = .488E-5
MEAN_MOTION_DDOT = 0

CCSDS_OMM_VERS = 2.0
CREATION_DATE  = 
ORIGINATOR     = 

OBJECT_NAME    = SL-16 R/B
OBJECT_ID      = 1985-097B
CENTER_NAME    = EARTH
REF_FRAME      = TEME
TIME_SYSTEM    = UTC
MEAN_ELEMENT_THEORY = SGP/SGP4

EPOCH          = 2026-03-26T10:44:11.690592
MEAN_MOTION    = 14.16603392
ECCENTRICITY   = .0009504
INCLINATION    = 71.0009
RA_OF_ASC_NODE = 105.2731
ARG_OF_PERICENTER = 240.1328
MEAN_ANOMALY   = 221.7684

EPHEMERIS_TYPE = 0
CLASSIFICATION_TYPE = U
NORAD_CAT_ID   = 16182
ELEMENT_SET_NO = 999
REV_AT_EPOCH   = 8960
BSTAR          = .46811E-4
MEAN_MOTION_DOT = .46E-6
MEAN_MOTION_DDOT = 0

CCSDS_OMM_VERS = 2.0
CREATION_DATE  = 
ORIGINATOR     = 

OBJECT_NAME    = SL-14 R/B
OBJECT_ID      = 1986-006B
CENTER_NAME    = EARTH
REF_FRAME      = TEME
TIME_SYSTEM    = UTC
MEAN_ELEMENT_THEORY = SGP/SGP4

EPOCH          = 2026-03-26T09:54:00.737856
MEAN_MOTION    = 14.86839885
ECCENTRICITY   = .0075621
INCLINATION    = 82.5247
RA_OF_ASC_NODE = 243.9941
ARG_OF_PERICENTER = 216.3804
MEAN_ANOMALY   = 143.2261

EPHEMERIS_TYPE = 0
CLASSIFICATION_TYPE = U
NORAD_CAT_ID   = 16496
ELEMENT_SET_NO = 999
REV_AT_EPOCH   = 15169
BSTAR          = .89795E-4
MEAN_MOTION_DOT = .869E-5
MEAN_MOTION_DDOT = 0

CCSDS_OMM_VERS = 2.0
CREATION_DATE  = 
ORIGINATOR     = 

OBJECT_NAME    = COSMOS 1743
OBJECT_ID      = 1986-034A
CENTER_NAME    = EARTH
REF_FRAME      = TEME
TIME_SYSTEM    = UTC
MEAN_ELEMENT_THEORY = SGP/SGP4

EPOCH          = 2026-03-26T09:25:12.724032
MEAN_MOTION    = 15.59891046
ECCENTRICITY   = .0003767
INCLINATION    = 82.5302
RA_OF_ASC_NODE = 56.2819
ARG_OF_PERICENTER = 178.7277
MEAN_ANOMALY   = 181.3990

EPHEMERIS_TYPE = 0
CLASSIFICATION_TYPE = U
NORAD_CAT_ID   = 16719
ELEMENT_SET_NO = 999
REV_AT_EPOCH   = 18285
BSTAR          = .50143E-3
MEAN_MOTION_DOT = .40496E-3
MEAN_MOTION_DDOT = 0

